[{"OBJECT_NAME":"STARLINK-36128","OBJECT_ID":"2025-281AB","EPOCH":"2026-03-09T03:34:17.135616","MEAN_MOTION":15.2760045,"ECCENTRICITY":0.00014467,"INCLINATION":43.0021,"RA_OF_ASC_NODE":346.4516,"ARG_OF_PERICENTER":259.0577,"MEAN_ANOMALY":101.0112,"EPHEMERIS_TYPE":0,"CLASSIFICATION_TYPE":"U","NORAD_CAT_ID":66873,"ELEMENT_SET_NO":999,"REV_AT_EPOCH":1604,"BSTAR":0.001046874,"MEAN_MOTION_DOT":0.00028676,"MEAN_MOTION_DDOT":0},{"OBJECT_NAME":"SL-24 DEB","OBJECT_ID":"2013-066AL","EPOCH":"2026-03-09T22:28:39.180576","MEAN_MOTION":15.26992446,"ECCENTRICITY":0.00036318,"INCLINATION":97.3978,"RA_OF_ASC_NODE":75.9402,"ARG_OF_PERICENTER":273.216,"MEAN_ANOMALY":86.8663,"EPHEMERIS_TYPE":0,"CLASSIFICATION_TYPE":"U","NORAD_CAT_ID":39450,"ELEMENT_SET_NO":999,"REV_AT_EPOCH":67244,"BSTAR":0.00070559472,"MEAN_MOTION_DOT":0.00018651,"MEAN_MOTION_DDOT":0}]
